CCSDS_OMM_VERS,COMMENT,CREATION_DATE,ORIGINATOR,OBJECT_NAME,OBJECT_ID,CENTER_NAME,REF_FRAME,TIME_SYSTEM,MEAN_ELEMENT_THEORY,EPOCH,MEAN_MOTION,ECCENTRICITY,INCLINATION,RA_OF_ASC_NODE,ARG_OF_PERICENTER,MEAN_ANOMALY,EPHEMERIS_TYPE,CLASSIFICATION_TYPE,NORAD_CAT_ID,ELEMENT_SET_NO,REV_AT_EPOCH,BSTAR,MEAN_MOTION_DOT,MEAN_MOTION_DDOT,SEMIMAJOR_AXIS,PERIOD,APOAPSIS,PERIAPSIS,OBJECT_TYPE,RCS_SIZE,COUNTRY_CODE,LAUNCH_DATE,SITE,DECAY_DATE,FILE,GP_ID,TLE_LINE0,TLE_LINE1,TLE_LINE2
"2.0","GENERATED VIA SPACE-TRACK.ORG API","2020-08-10T17:07:32","18 SPCS","COSMOS 1818","1987-011A","EARTH","TEME","UTC","SGP4","2020-08-10T03:24:07.092864","14.31457696","0.00135920","65.0114","113.1166","281.2003","78.7554","0","U","17369","999","80294","0.00000041073000","-0.00000099","0.0000000000000","7164.999","100.596","796.603","777.125","PAYLOAD","LARGE","CIS","1987-02-01","TTMTR","","2799329","159129185","0 COSMOS 1818","1 17369U 87011A   20223.14174876 -.00000099 +00000-0 +41073-6 0  9990","2 17369 065.0114 113.1166 0013592 281.2003 078.7554 14.31457696802945"
"2.0","GENERATED VIA SPACE-TRACK.ORG API","2020-08-10T02:45:10","18 SPCS","COSMOS 1818","1987-011A","EARTH","TEME","UTC","SGP4","2020-08-09T22:22:18.396768","14.31457758","0.00135930","65.0114","113.7035","281.1834","78.7722","0","U","17369","999","80291","0.00000195690000","-0.00000095","0.0000000000000","7164.999","100.596","796.603","777.124","PAYLOAD","LARGE","CIS","1987-02-01","TTMTR","","2798970","159079737","0 COSMOS 1818","1 17369U 87011A   20222.93215737 -.00000095 +00000-0 +19569-5 0  9998","2 17369 065.0114 113.7035 0013593 281.1834 078.7722 14.31457758802911"
"2.0","GENERATED VIA SPACE-TRACK.ORG API","2020-08-10T02:45:10","18 SPCS","IRIDIUM 136","2017-061H","EARTH","TEME","UTC","SGP4","2020-08-09T21:28:47.030592","14.34218244","0.00019860","86.3999","198.3739","94.5690","265.5733","0","U","42962","999","14849","0.00001879500000","0.00000072","0.0000000000000","7155.802","100.403","779.088","776.246","PAYLOAD","LARGE","US","2017-10-09","AFWTR","","2798970","159092237","0 IRIDIUM 136","1 42962U 17061H   20222.89498878 +.00000072 +00000-0 +18795-4 0  9990","2 42962 086.3999 198.3739 0001986 094.5690 265.5733 14.34218244148496"
"2.0","GENERATED VIA SPACE-TRACK.ORG API","2020-08-09T19:11:44","18 SPCS","IRIDIUM 136","2017-061H","EARTH","TEME","UTC","SGP4","2020-08-09T11:25:59.040192","14.34218210","0.00019760","86.3999","198.5486","94.5028","265.6394","0","U","42962","999","14843","0.00001879700000","0.00000072","0.0000000000000","7155.802","100.403","779.081","776.253","PAYLOAD","LARGE","US","2017-10-09","AFWTR","","2798784","159067815","0 IRIDIUM 136","1 42962U 17061H   20222.47637778 +.00000072 +00000-0 +18797-4 0  9990","2 42962 086.3999 198.5486 0001976 094.5028 265.6394 14.34218210148432"
"2.0","GENERATED VIA SPACE-TRACK.ORG API","2020-08-09T19:11:44","18 SPCS","COSMOS 1818","1987-011A","EARTH","TEME","UTC","SGP4","2020-08-09T10:38:04.796448","14.31457703","0.00135820","65.0114","115.0729","281.1579","78.7978","0","U","17369","999","80284","-0.00000063747000","-0.00000102","0.0000000000000","7164.999","100.596","796.595","777.132","PAYLOAD","LARGE","CIS","1987-02-01","TTMTR","","2798784","159054551","0 COSMOS 1818","1 17369U 87011A   20222.44311107 -.00000102 +00000-0 -63747-6 0  9990","2 17369 065.0114 115.0729 0013582 281.1579 078.7978 14.31457703802845"
"2.0","GENERATED VIA SPACE-TRACK.ORG API","2020-08-09T06:36:10","18 SPCS","IRIDIUM 136","2017-061H","EARTH","TEME","UTC","SGP4","2020-08-09T04:44:07.047456","14.34218165","0.00019720","86.3998","198.6651","94.3366","265.8055","0","U","42962","999","14839","0.00001827100000","0.00000071","0.0000000000000","7155.802","100.403","779.078","776.256","PAYLOAD","LARGE","US","2017-10-09","AFWTR","","2798449","159043253","0 IRIDIUM 136","1 42962U 17061H   20222.19730379  .00000071  00000-0  18271-4 0  9996","2 42962  86.3998 198.6651 0001972  94.3366 265.8055 14.34218165148395"
"2.0","GENERATED VIA SPACE-TRACK.ORG API","2020-08-09T06:36:10","18 SPCS","COSMOS 1818","1987-011A","EARTH","TEME","UTC","SGP4","2020-08-09T03:55:39.880128","14.31457699","0.00135760","65.0114","115.8553","281.1300","78.8258","0","U","17369","999","80308","-0.00000010170000","-0.00000101","0.0000000000000","7164.999","100.596","796.591","777.137","PAYLOAD","LARGE","CIS","1987-02-01","TTMTR","","2798436","159043126","0 COSMOS 1818","1 17369U 87011A   20222.16365602 -.00000101  00000-0 -10170-6 0  9999","2 17369  65.0114 115.8553 0013576 281.1300  78.8258 14.31457699803086"
"2.0","GENERATED VIA SPACE-TRACK.ORG API","2020-08-09T01:23:25","18 SPCS","COSMOS 1818","1987-011A","EARTH","TEME","UTC","SGP4","2020-08-08T22:53:51.190944","14.31457698","0.00135720","65.0114","116.4422","281.0914","78.8644","0","U","17369","999","80277","-0.00000053988000","-0.00000102","0.0000000000000","7164.999","100.596","796.588","777.140","PAYLOAD","LARGE","CIS","1987-02-01","TTMTR","","2798367","159027216","0 COSMOS 1818","1 17369U 87011A   20221.95406471 -.00000102 +00000-0 -53988-6 0  9990","2 17369 065.0114 116.4422 0013572 281.0914 078.8644 14.31457698802777"
"2.0","GENERATED VIA SPACE-TRACK.ORG API","2020-08-08T17:49:11","18 SPCS","IRIDIUM 136","2017-061H","EARTH","TEME","UTC","SGP4","2020-08-08T11:59:27.060000","14.34218137","0.00019560","86.3997","198.9564","94.2186","265.9233","0","U","42962","999","14829","0.00001923500000","0.00000074","0.0000000000000","7155.802","100.403","779.067","776.268","PAYLOAD","LARGE","US","2017-10-09","AFWTR","","2798220","159014053","0 IRIDIUM 136","1 42962U 17061H   20221.49961875 +.00000074 +00000-0 +19235-4 0  9999","2 42962 086.3997 198.9564 0001956 094.2186 265.9233 14.34218137148298"
"2.0","GENERATED VIA SPACE-TRACK.ORG API","2020-08-08T17:49:11","18 SPCS","COSMOS 1818","1987-011A","EARTH","TEME","UTC","SGP4","2020-08-08T02:46:36.443712","14.31457586","0.00135240","65.0100","118.7904","280.5245","79.4315","0","U","17369","999","80265","-0.00000095143000","-0.00000103","0.0000000000000","7164.999","100.596","796.554","777.174","PAYLOAD","LARGE","CIS","1987-02-01","TTMTR","","2798220","159002551","0 COSMOS 1818","1 17369U 87011A   20221.11569958 -.00000103 +00000-0 -95143-6 0  9998","2 17369 065.0100 118.7904 0013524 280.5245 079.4315 14.31457586802655"
"2.0","GENERATED VIA SPACE-TRACK.ORG API","2020-08-08T06:36:10","18 SPCS","IRIDIUM 136","2017-061H","EARTH","TEME","UTC","SGP4","2020-08-08T01:56:39.069600","14.34218080","0.00019490","86.3997","199.1311","93.8879","266.2540","0","U","42962","999","14823","0.00001821500000","0.00000071","0.0000000000000","7155.803","100.403","779.062","776.273","PAYLOAD","LARGE","US","2017-10-09","AFWTR","","2797872","158990422","0 IRIDIUM 136","1 42962U 17061H   20221.08100775  .00000071  00000-0  18215-4 0  9992","2 42962  86.3997 199.1311 0001949  93.8879 266.2540 14.34218080148233"
"2.0","GENERATED VIA SPACE-TRACK.ORG API","2020-08-08T04:38:54","18 SPCS","IRIDIUM 136","2017-061H","EARTH","TEME","UTC","SGP4","2020-08-07T20:55:15.063168","14.34218140","0.00019290","86.3996","199.2185","93.6982","266.4435","0","U","42962","999","14820","0.00002145100000","0.00000080","0.0000000000000","7155.802","100.403","779.048","776.287","PAYLOAD","LARGE","US","2017-10-09","AFWTR","","2797810","158986403","0 IRIDIUM 136","1 42962U 17061H   20220.87170212 +.00000080 +00000-0 +21451-4 0  9997","2 42962 086.3996 199.2185 0001929 093.6982 266.4435 14.34218140148202"
"2.0","GENERATED VIA SPACE-TRACK.ORG API","2020-08-07T22:26:10","18 SPCS","COSMOS 1818","1987-011A","EARTH","TEME","UTC","SGP4","2020-08-07T20:04:11.531712","14.31457688","0.00135330","65.0114","119.5722","281.0063","78.9499","0","U","17369","999","80289","0.00000290820000","-0.00000093","0.0000000000000","7164.999","100.596","796.560","777.168","PAYLOAD","LARGE","CIS","1987-02-01","TTMTR","","2797691","158965283","0 COSMOS 1818","1 17369U 87011A   20220.83624458 -.00000093  00000-0  29082-5 0  9998","2 17369  65.0114 119.5722 0013533 281.0063  78.9499 14.31457688802897"
"2.0","GENERATED VIA SPACE-TRACK.ORG API","2020-08-07T17:49:53","18 SPCS","IRIDIUM 136","2017-061H","EARTH","TEME","UTC","SGP4","2020-08-07T10:52:27.071904","14.34218086","0.00019210","86.3996","199.3932","93.5459","266.5956","0","U","42962","999","14814","0.00002054800000","0.00000077","0.0000000000000","7155.803","100.403","779.042","776.293","PAYLOAD","LARGE","US","2017-10-09","AFWTR","","2797633","158961235","0 IRIDIUM 136","1 42962U 17061H   20220.45309111 +.00000077 +00000-0 +20548-4 0  9995","2 42962 086.3996 199.3932 0001921 093.5459 266.5956 14.34218086148144"
"2.0","GENERATED VIA SPACE-TRACK.ORG API","2020-08-07T17:49:53","18 SPCS","COSMOS 1818","1987-011A","EARTH","TEME","UTC","SGP4","2020-08-07T03:18:09.249120","14.31457652","0.00135110","65.0114","121.5285","280.9626","78.9938","0","U","17369","999","80251","0.00000735740000","-0.00000081","0.0000000000000","7164.999","100.596","796.545","777.183","PAYLOAD","LARGE","CIS","1987-02-01","TTMTR","","2797633","158949975","0 COSMOS 1818","1 17369U 87011A   20220.13760705 -.00000081 +00000-0 +73574-5 0  9999","2 17369 065.0114 121.5285 0013511 280.9626 078.9938 14.31457652802511"
"2.0","GENERATED VIA SPACE-TRACK.ORG API","2020-08-06T20:26:10","18 SPCS","COSMOS 1818","1987-011A","EARTH","TEME","UTC","SGP4","2020-08-06T17:14:31.875072","14.31457655","0.00135050","65.0114","122.7023","280.9333","79.0232","0","U","17369","999","80273","0.00000877350000","-0.00000077","0.0000000000000","7164.999","100.596","796.540","777.188","PAYLOAD","LARGE","CIS","1987-02-01","TTMTR","","2797102","158911842","0 COSMOS 1818","1 17369U 87011A   20219.71842448 -.00000077  00000-0  87735-5 0  9995","2 17369  65.0114 122.7023 0013505 280.9333  79.0232 14.31457655802738"
